[{"OBJECT_NAME":"SATELIOT_4","OBJECT_ID":"2024-149BX","EPOCH":"2026-03-09T17:48:54.333792","MEAN_MOTION":14.96254023,"ECCENTRICITY":0.00023903,"INCLINATION":97.6789,"RA_OF_ASC_NODE":145.1106,"ARG_OF_PERICENTER":45.2073,"MEAN_ANOMALY":314.9342,"EPHEMERIS_TYPE":0,"CLASSIFICATION_TYPE":"U","NORAD_CAT_ID":60537,"ELEMENT_SET_NO":999,"REV_AT_EPOCH":8510,"BSTAR":0.00026256084,"MEAN_MOTION_DOT":2.907e-5,"MEAN_MOTION_DDOT":0},{"OBJECT_NAME":"STARLINK-32911","OBJECT_ID":"2025-037V","EPOCH":"2026-03-09T22:00:01.999584","MEAN_MOTION":14.98355821,"ECCENTRICITY":0.00031361,"INCLINATION":70.0028,"RA_OF_ASC_NODE":354.065,"ARG_OF_PERICENTER":265.9496,"MEAN_ANOMALY":13.4985,"EPHEMERIS_TYPE":0,"CLASSIFICATION_TYPE":"U","NORAD_CAT_ID":63096,"ELEMENT_SET_NO":999,"REV_AT_EPOCH":576,"BSTAR":-0.002949172,"MEAN_MOTION_DOT":-0.0003513,"MEAN_MOTION_DDOT":0}]
